{
  "type": "FeatureCollection",
  "features": [
    {
      "type": "Feature",
      "properties": {
        "id": "romanee-conti",
        "name": "Romanée-Conti",
        "grade": "Grand Cru",
        "area_ha": 1.81,
        "description": "Romanée-Conti (Grand Cru)"
      },
      "geometry": {
        "type": "Polygon",
        "coordinates": [
          [
            [
              4.955,
              47.16
            ],
            [
              4.957,
              47.16
            ],
            [
              4.957,
              47.1585
            ],
            [
              4.955,
              47.1585
            ],
            [
              4.955,
              47.16
            ]
          ]
        ]
      }
    },
    {
      "type": "Feature",
      "properties": {
        "id": "la-romanee",
        "name": "La Romanée",
        "grade": "Grand Cru",
        "area_ha": 0.85,
        "description": "La Romanée (Grand Cru)"
      },
      "geometry": {
        "type": "Polygon",
        "coordinates": [
          [
            [
              4.9535,
              47.16
            ],
            [
              4.9549,
              47.16
            ],
            [
              4.9549,
              47.1585
            ],
            [
              4.9535,
              47.1585
            ],
            [
              4.9535,
              47.16
            ]
          ]
        ]
      }
    },
    {
      "type": "Feature",
      "properties": {
        "id": "la-grande-rue",
        "name": "La Grande Rue",
        "grade": "Grand Cru",
        "area_ha": 1.65,
        "description": "La Grande Rue (Grand Cru)"
      },
      "geometry": {
        "type": "Polygon",
        "coordinates": [
          [
            [
              4.955,
              47.15839999999999
            ],
            [
              4.957,
              47.15839999999999
            ],
            [
              4.957,
              47.157399999999996
            ],
            [
              4.955,
              47.157399999999996
            ],
            [
              4.955,
              47.15839999999999
            ]
          ]
        ]
      }
    },
    {
      "type": "Feature",
      "properties": {
        "id": "la-tache",
        "name": "La Tâche",
        "grade": "Grand Cru",
        "area_ha": 6.06,
        "description": "La Tâche (Grand Cru)"
      },
      "geometry": {
        "type": "Polygon",
        "coordinates": [
          [
            [
              4.954,
              47.1573
            ],
            [
              4.9575,
              47.1573
            ],
            [
              4.9575,
              47.1548
            ],
            [
              4.954,
              47.1548
            ],
            [
              4.954,
              47.1573
            ]
          ]
        ]
      }
    },
    {
      "type": "Feature",
      "properties": {
        "id": "richebourg",
        "name": "Richebourg",
        "grade": "Grand Cru",
        "area_ha": 8.03,
        "description": "Richebourg (Grand Cru)"
      },
      "geometry": {
        "type": "Polygon",
        "coordinates": [
          [
            [
              4.954,
              47.162499999999994
            ],
            [
              4.957999999999999,
              47.162499999999994
            ],
            [
              4.957999999999999,
              47.16009999999999
            ],
            [
              4.954,
              47.16009999999999
            ],
            [
              4.954,
              47.162499999999994
            ]
          ]
        ]
      }
    },
    {
      "type": "Feature",
      "properties": {
        "id": "romanee-st-vivant",
        "name": "Romanée-Saint-Vivant",
        "grade": "Grand Cru",
        "area_ha": 9.44,
        "description": "Romanée-Saint-Vivant (Grand Cru)"
      },
      "geometry": {
        "type": "Polygon",
        "coordinates": [
          [
            [
              4.9571000000000005,
              47.162
            ],
            [
              4.960100000000001,
              47.162
            ],
            [
              4.960100000000001,
              47.158
            ],
            [
              4.9571000000000005,
              47.158
            ],
            [
              4.9571000000000005,
              47.162
            ]
          ]
        ]
      }
    },
    {
      "type": "Feature",
      "properties": {
        "id": "grands-echezeaux",
        "name": "Grands Échezeaux",
        "grade": "Grand Cru",
        "area_ha": 9.14,
        "description": "Grands Échezeaux (Grand Cru)"
      },
      "geometry": {
        "type": "Polygon",
        "coordinates": [
          [
            [
              4.958,
              47.169999999999995
            ],
            [
              4.962,
              47.169999999999995
            ],
            [
              4.962,
              47.166999999999994
            ],
            [
              4.958,
              47.166999999999994
            ],
            [
              4.958,
              47.169999999999995
            ]
          ]
        ]
      }
    },
    {
      "type": "Feature",
      "properties": {
        "id": "echezeaux",
        "name": "Échezeaux",
        "grade": "Grand Cru",
        "area_ha": 37.69,
        "description": "Échezeaux (Grand Cru)"
      },
      "geometry": {
        "type": "Polygon",
        "coordinates": [
          [
            [
              4.953,
              47.172
            ],
            [
              4.961,
              47.172
            ],
            [
              4.961,
              47.166999999999994
            ],
            [
              4.953,
              47.166999999999994
            ],
            [
              4.953,
              47.172
            ]
          ]
        ]
      }
    },
    {
      "type": "Feature",
      "properties": {
        "id": "aux-malconsorts",
        "name": "Aux Malconsorts",
        "grade": "Premier Cru",
        "area_ha": 5.86,
        "description": "Aux Malconsorts (Premier Cru)"
      },
      "geometry": {
        "type": "Polygon",
        "coordinates": [
          [
            [
              4.954,
              47.1547
            ],
            [
              4.9575,
              47.1547
            ],
            [
              4.9575,
              47.152699999999996
            ],
            [
              4.954,
              47.152699999999996
            ],
            [
              4.954,
              47.1547
            ]
          ]
        ]
      }
    },
    {
      "type": "Feature",
      "properties": {
        "id": "cros-parantoux",
        "name": "Cros Parantoux",
        "grade": "Premier Cru",
        "area_ha": 1.01,
        "description": "Cros Parantoux (Premier Cru)"
      },
      "geometry": {
        "type": "Polygon",
        "coordinates": [
          [
            [
              4.9525,
              47.163
            ],
            [
              4.9539,
              47.163
            ],
            [
              4.9539,
              47.1615
            ],
            [
              4.9525,
              47.1615
            ],
            [
              4.9525,
              47.163
            ]
          ]
        ]
      }
    },
    {
      "type": "Feature",
      "properties": {
        "id": "les-suchots",
        "name": "Les Suchots",
        "grade": "Premier Cru",
        "area_ha": 13.19,
        "description": "Les Suchots (Premier Cru)"
      },
      "geometry": {
        "type": "Polygon",
        "coordinates": [
          [
            [
              4.954,
              47.166
            ],
            [
              4.959,
              47.166
            ],
            [
              4.959,
              47.163
            ],
            [
              4.954,
              47.163
            ],
            [
              4.954,
              47.166
            ]
          ]
        ]
      }
    },
    {
      "type": "Feature",
      "properties": {
        "id": "aux-brulees",
        "name": "Aux Brûlées",
        "grade": "Premier Cru",
        "area_ha": 3.84,
        "description": "Aux Brûlées (Premier Cru)"
      },
      "geometry": {
        "type": "Polygon",
        "coordinates": [
          [
            [
              4.9525,
              47.165
            ],
            [
              4.9544999999999995,
              47.165
            ],
            [
              4.9544999999999995,
              47.163
            ],
            [
              4.9525,
              47.163
            ],
            [
              4.9525,
              47.165
            ]
          ]
        ]
      }
    },
    {
      "type": "Feature",
      "properties": {
        "id": "les-beaux-monts",
        "name": "Les Beaux Monts",
        "grade": "Premier Cru",
        "area_ha": 11.39,
        "description": "Les Beaux Monts (Premier Cru)"
      },
      "geometry": {
        "type": "Polygon",
        "coordinates": [
          [
            [
              4.9510000000000005,
              47.166999999999994
            ],
            [
              4.954000000000001,
              47.166999999999994
            ],
            [
              4.954000000000001,
              47.163999999999994
            ],
            [
              4.9510000000000005,
              47.163999999999994
            ],
            [
              4.9510000000000005,
              47.166999999999994
            ]
          ]
        ]
      }
    },
    {
      "type": "Feature",
      "properties": {
        "id": "clos-des-reas",
        "name": "Clos des Réas",
        "grade": "Premier Cru",
        "area_ha": 2.12,
        "description": "Clos des Réas (Premier Cru)"
      },
      "geometry": {
        "type": "Polygon",
        "coordinates": [
          [
            [
              4.958,
              47.153999999999996
            ],
            [
              4.96,
              47.153999999999996
            ],
            [
              4.96,
              47.151999999999994
            ],
            [
              4.958,
              47.151999999999994
            ],
            [
              4.958,
              47.153999999999996
            ]
          ]
        ]
      }
    },
    {
      "type": "Feature",
      "properties": {
        "id": "les-chaumes",
        "name": "Les Chaumes",
        "grade": "Premier Cru",
        "area_ha": 6.46,
        "description": "Les Chaumes (Premier Cru)"
      },
      "geometry": {
        "type": "Polygon",
        "coordinates": [
          [
            [
              4.956,
              47.153999999999996
            ],
            [
              4.958,
              47.153999999999996
            ],
            [
              4.958,
              47.151999999999994
            ],
            [
              4.956,
              47.151999999999994
            ],
            [
              4.956,
              47.153999999999996
            ]
          ]
        ]
      }
    },
    {
      "type": "Feature",
      "properties": {
        "id": "aux-reignots",
        "name": "Aux Reignots",
        "grade": "Premier Cru",
        "area_ha": 1.62,
        "description": "Aux Reignots (Premier Cru)"
      },
      "geometry": {
        "type": "Polygon",
        "coordinates": [
          [
            [
              4.9525,
              47.160999999999994
            ],
            [
              4.954,
              47.160999999999994
            ],
            [
              4.954,
              47.16
            ],
            [
              4.9525,
              47.16
            ],
            [
              4.9525,
              47.160999999999994
            ]
          ]
        ]
      }
    },
    {
      "type": "Feature",
      "properties": {
        "id": "les-petits-monts",
        "name": "Les Petits Monts",
        "grade": "Premier Cru",
        "area_ha": 3.67,
        "description": "Les Petits Monts (Premier Cru)"
      },
      "geometry": {
        "type": "Polygon",
        "coordinates": [
          [
            [
              4.9525,
              47.1635
            ],
            [
              4.954,
              47.1635
            ],
            [
              4.954,
              47.162
            ],
            [
              4.9525,
              47.162
            ],
            [
              4.9525,
              47.1635
            ]
          ]
        ]
      }
    },
    {
      "type": "Feature",
      "properties": {
        "id": "vosne-romanee-village",
        "name": "Vosne-Romanée Village",
        "grade": "Village",
        "area_ha": 95.0,
        "description": "Vosne-Romanée Village (Village)"
      },
      "geometry": {
        "type": "Polygon",
        "coordinates": [
          [
            [
              4.961,
              47.154999999999994
            ],
            [
              4.971,
              47.154999999999994
            ],
            [
              4.971,
              47.13999999999999
            ],
            [
              4.961,
              47.13999999999999
            ],
            [
              4.961,
              47.154999999999994
            ]
          ]
        ]
      }
    }
  ]
}