{
  "type": "FeatureCollection",
  "features": [
    {
      "type": "Feature",
      "properties": {
        "ID_PARCEL": "CHAMBERTIN_01",
        "LBL_AOC": "Chambertin Grand Cru",
        "NOM_CRU": "Chambertin",
        "SURFACE_HA": 12.9,
        "description": "Le Roi des Vins"
      },
      "geometry": {
        "type": "Polygon",
        "coordinates": [
          [
            [4.957, 47.227],
            [4.959, 47.228],
            [4.960, 47.225],
            [4.958, 47.224],
            [4.957, 47.227]
          ]
        ]
      }
    },
    {
      "type": "Feature",
      "properties": {
        "ID_PARCEL": "CLOS_DE_BEZE_01",
        "LBL_AOC": "Chambertin-Clos de Bèze Grand Cru",
        "NOM_CRU": "Clos de Bèze",
        "SURFACE_HA": 15.4
      },
      "geometry": {
        "type": "Polygon",
        "coordinates": [
          [
            [4.959, 47.228],
            [4.961, 47.229],
            [4.962, 47.226],
            [4.960, 47.225],
            [4.959, 47.228]
          ]
        ]
      }
    }
  ]
}
